{
"type": "FeatureCollection",
"name": "transects",
"crs": { "type": "name", "properties": { "name": "urn:ogc:def:crs:OGC:1.3:CRS84" } },
"features": [
{ "type": "Feature", "properties": { "FID": 0 }, "geometry": { "type": "LineString", "coordinates": [ [ 74.699622899598779, 13.345371818774845 ], [ 74.690388514421556, 13.345371818885013 ] ] } },
{ "type": "Feature", "properties": { "FID": 20 }, "geometry": { "type": "LineString", "coordinates": [ [ 74.7035939524079, 13.334384282795879 ], [ 74.712827930889929, 13.334384282844059 ] ] } },
{ "type": "Feature", "properties": { "FID": 40 }, "geometry": { "type": "LineString", "coordinates": [ [ 74.713026769855603, 13.307451753877094 ], [ 74.722259734411253, 13.30745175363057 ] ] } },
{ "type": "Feature", "properties": { "FID": 60 }, "geometry": { "type": "LineString", "coordinates": [ [ 74.682981972145711, 13.310279162880924 ], [ 74.682982128221951, 13.30123679277094 ] ] } },
{ "type": "Feature", "properties": { "FID": 80 }, "geometry": { "type": "LineString", "coordinates": [ [ 74.661084781409102, 13.31595845164588 ], [ 74.651851545867643, 13.315958605098475 ] ] } },
{ "type": "Feature", "properties": { "FID": 100 }, "geometry": { "type": "LineString", "coordinates": [ [ 74.66108602669604, 13.352127776368098 ], [ 74.651851418260492, 13.352127896538596 ] ] } },
{ "type": "Feature", "properties": { "FID": 120 }, "geometry": { "type": "LineString", "coordinates": [ [ 74.661087138129645, 13.38829699821097 ], [ 74.651851152734011, 13.388297085098731 ] ] } },
{ "type": "Feature", "properties": { "FID": 140 }, "geometry": { "type": "LineString", "coordinates": [ [ 74.661088115671888, 13.424466116914731 ], [ 74.651850749247274, 13.424466170521205 ] ] } },
{ "type": "Feature", "properties": { "FID": 160 }, "geometry": { "type": "LineString", "coordinates": [ [ 74.661088959284442, 13.460635132221627 ], [ 74.651850207759054, 13.460635152546644 ] ] } },
{ "type": "Feature", "properties": { "FID": 180 }, "geometry": { "type": "LineString", "coordinates": [ [ 74.661089668928682, 13.496804043873279 ], [ 74.651849528227814, 13.496804030916646 ] ] } },
{ "type": "Feature", "properties": { "FID": 200 }, "geometry": { "type": "LineString", "coordinates": [ [ 74.661090244565727, 13.53297285161069 ], [ 74.651848710611745, 13.532972805373772 ] ] } },
{ "type": "Feature", "properties": { "FID": 220 }, "geometry": { "type": "LineString", "coordinates": [ [ 74.661090686156371, 13.569141555176877 ], [ 74.651847754868712, 13.569141475658899 ] ] } },
{ "type": "Feature", "properties": { "FID": 240 }, "geometry": { "type": "LineString", "coordinates": [ [ 74.661090993661162, 13.605310154312917 ], [ 74.651846660956295, 13.605310041515189 ] ] } },
{ "type": "Feature", "properties": { "FID": 260 }, "geometry": { "type": "LineString", "coordinates": [ [ 74.661091167040283, 13.64147864876217 ], [ 74.651845428831777, 13.641478502683862 ] ] } },
{ "type": "Feature", "properties": { "FID": 280 }, "geometry": { "type": "LineString", "coordinates": [ [ 74.659660196926225, 13.654566812311424 ], [ 74.668906451856571, 13.65456681202402 ] ] } },
{ "type": "Feature", "properties": { "FID": 300 }, "geometry": { "type": "LineString", "coordinates": [ [ 74.668294381452768, 13.630018489137061 ], [ 74.668294395638156, 13.639060610997227 ] ] } },
{ "type": "Feature", "properties": { "FID": 320 }, "geometry": { "type": "LineString", "coordinates": [ [ 74.670666606587787, 13.655769270228323 ], [ 74.670666604678161, 13.646727158438281 ] ] } },
{ "type": "Feature", "properties": { "FID": 340 }, "geometry": { "type": "LineString", "coordinates": [ [ 74.6760992628613, 13.659520325371954 ], [ 74.685345725215981, 13.659520325532265 ] ] } },
{ "type": "Feature", "properties": { "FID": 360 }, "geometry": { "type": "LineString", "coordinates": [ [ 74.677985843962745, 13.653370134892077 ], [ 74.687232068293298, 13.65337013497764 ] ] } },
{ "type": "Feature", "properties": { "FID": 380 }, "geometry": { "type": "LineString", "coordinates": [ [ 74.70367130263628, 13.65634217296158 ], [ 74.694424948916648, 13.656342172874217 ] ] } },
{ "type": "Feature", "properties": { "FID": 400 }, "geometry": { "type": "LineString", "coordinates": [ [ 74.704269193987145, 13.657386250899528 ], [ 74.704269195284382, 13.648344112794648 ] ] } },
{ "type": "Feature", "properties": { "FID": 420 }, "geometry": { "type": "LineString", "coordinates": [ [ 74.715080744199327, 13.650918387384721 ], [ 74.715080749417211, 13.641876236367045 ] ] } },
{ "type": "Feature", "properties": { "FID": 440 }, "geometry": { "type": "LineString", "coordinates": [ [ 74.718569585953887, 13.650500064860148 ], [ 74.718569585310206, 13.65954221220089 ] ] } },
{ "type": "Feature", "properties": { "FID": 460 }, "geometry": { "type": "LineString", "coordinates": [ [ 74.720379897069506, 13.652422803668316 ], [ 74.71113368295012, 13.652422803697007 ] ] } },
{ "type": "Feature", "properties": { "FID": 480 }, "geometry": { "type": "LineString", "coordinates": [ [ 74.724422195261653, 13.646151722081212 ], [ 74.715176222289116, 13.646151722164198 ] ] } },
{ "type": "Feature", "properties": { "FID": 500 }, "geometry": { "type": "LineString", "coordinates": [ [ 74.734068956131523, 13.64187622971297 ], [ 74.734068960750363, 13.650918394420533 ] ] } },
{ "type": "Feature", "properties": { "FID": 520 }, "geometry": { "type": "LineString", "coordinates": [ [ 74.745231483537907, 13.651187892738649 ], [ 74.745231484869237, 13.642145720619469 ] ] } },
{ "type": "Feature", "properties": { "FID": 540 }, "geometry": { "type": "LineString", "coordinates": [ [ 74.754199325165189, 13.638372792298366 ], [ 74.754199301025864, 13.647414973032639 ] ] } },
{ "type": "Feature", "properties": { "FID": 560 }, "geometry": { "type": "LineString", "coordinates": [ [ 74.769966776515076, 13.645165204924213 ], [ 74.760720810564408, 13.645165204936655 ] ] } },
{ "type": "Feature", "properties": { "FID": 580 }, "geometry": { "type": "LineString", "coordinates": [ [ 74.773191097038975, 13.650500046966023 ], [ 74.773191093122108, 13.659542230638161 ] ] } },
{ "type": "Feature", "properties": { "FID": 600 }, "geometry": { "type": "LineString", "coordinates": [ [ 74.768266385372428, 13.659092133886185 ], [ 74.777512898432803, 13.659092133821664 ] ] } },
{ "type": "Feature", "properties": { "FID": 620 }, "geometry": { "type": "LineString", "coordinates": [ [ 74.780075568995144, 13.65265600214347 ], [ 74.780075570684701, 13.66169818827356 ] ] } },
{ "type": "Feature", "properties": { "FID": 640 }, "geometry": { "type": "LineString", "coordinates": [ [ 74.77150045333461, 13.652217225014274 ], [ 74.780746700496977, 13.652217225029792 ] ] } },
{ "type": "Feature", "properties": { "FID": 660 }, "geometry": { "type": "LineString", "coordinates": [ [ 74.76997453458003, 13.639989755000045 ], [ 74.769974531328344, 13.649031944384808 ] ] } },
{ "type": "Feature", "properties": { "FID": 680 }, "geometry": { "type": "LineString", "coordinates": [ [ 74.762348082951149, 13.632443906218931 ], [ 74.7623480920156, 13.6414860964138 ] ] } },
{ "type": "Feature", "properties": { "FID": 700 }, "geometry": { "type": "LineString", "coordinates": [ [ 74.769345131701243, 13.619599538595182 ], [ 74.778590108779952, 13.619599538605097 ] ] } },
{ "type": "Feature", "properties": { "FID": 720 }, "geometry": { "type": "LineString", "coordinates": [ [ 74.784518995104406, 13.619789807264944 ], [ 74.775274007093742, 13.619789807222476 ] ] } },
{ "type": "Feature", "properties": { "FID": 740 }, "geometry": { "type": "LineString", "coordinates": [ [ 74.782320017709637, 13.620855629012254 ], [ 74.782320017635513, 13.629897839519403 ] ] } },
{ "type": "Feature", "properties": { "FID": 760 }, "geometry": { "type": "LineString", "coordinates": [ [ 74.780663676965574, 13.631123623904251 ], [ 74.789909108612861, 13.631123623489989 ] ] } },
{ "type": "Feature", "properties": { "FID": 780 }, "geometry": { "type": "LineString", "coordinates": [ [ 74.791525957073162, 13.624975236232615 ], [ 74.782280763512858, 13.624975236153928 ] ] } },
{ "type": "Feature", "properties": { "FID": 800 }, "geometry": { "type": "LineString", "coordinates": [ [ 74.791173975541483, 13.630468685824937 ], [ 74.800419387616046, 13.630468685809445 ] ] } },
{ "type": "Feature", "properties": { "FID": 820 }, "geometry": { "type": "LineString", "coordinates": [ [ 74.802843693474856, 13.635018240226019 ], [ 74.802843697072788, 13.625976022288814 ] ] } },
{ "type": "Feature", "properties": { "FID": 840 }, "geometry": { "type": "LineString", "coordinates": [ [ 74.797267796829829, 13.621125119472147 ], [ 74.79726779640734, 13.630167338010258 ] ] } },
{ "type": "Feature", "properties": { "FID": 860 }, "geometry": { "type": "LineString", "coordinates": [ [ 74.801414888380521, 13.624228278873431 ], [ 74.810660063336485, 13.624228279396727 ] ] } },
{ "type": "Feature", "properties": { "FID": 880 }, "geometry": { "type": "LineString", "coordinates": [ [ 74.804564610914156, 13.599565542938002 ], [ 74.804564611268503, 13.608607780909027 ] ] } },
{ "type": "Feature", "properties": { "FID": 900 }, "geometry": { "type": "LineString", "coordinates": [ [ 74.796502322513732, 13.609955251295325 ], [ 74.796502316190157, 13.600913018511569 ] ] } },
{ "type": "Feature", "properties": { "FID": 920 }, "geometry": { "type": "LineString", "coordinates": [ [ 74.80095805313023, 13.613801845152619 ], [ 74.791713288360711, 13.61380184521891 ] ] } },
{ "type": "Feature", "properties": { "FID": 940 }, "geometry": { "type": "LineString", "coordinates": [ [ 74.779316540601783, 13.613820329928279 ], [ 74.788561299124424, 13.61382032986884 ] ] } },
{ "type": "Feature", "properties": { "FID": 960 }, "geometry": { "type": "LineString", "coordinates": [ [ 74.775438839281833, 13.602529992524335 ], [ 74.77543883375013, 13.611572212331682 ] ] } },
{ "type": "Feature", "properties": { "FID": 980 }, "geometry": { "type": "LineString", "coordinates": [ [ 74.775894883466478, 13.605245424077129 ], [ 74.766650465330002, 13.605245424027341 ] ] } },
{ "type": "Feature", "properties": { "FID": 1000 }, "geometry": { "type": "LineString", "coordinates": [ [ 74.768553353404499, 13.614118266250305 ], [ 74.768553342240537, 13.623160473548982 ] ] } },
{ "type": "Feature", "properties": { "FID": 1020 }, "geometry": { "type": "LineString", "coordinates": [ [ 74.765186720120127, 13.632592779209427 ], [ 74.765186720969268, 13.62355058080583 ] ] } },
{ "type": "Feature", "properties": { "FID": 1040 }, "geometry": { "type": "LineString", "coordinates": [ [ 74.75500300344244, 13.642833567025654 ], [ 74.755002996992957, 13.633791382449107 ] ] } },
{ "type": "Feature", "properties": { "FID": 1060 }, "geometry": { "type": "LineString", "coordinates": [ [ 74.740052667565166, 13.634880994246476 ], [ 74.730807121776905, 13.634880994290794 ] ] } },
{ "type": "Feature", "properties": { "FID": 1080 }, "geometry": { "type": "LineString", "coordinates": [ [ 74.720027418293384, 13.630972602821014 ], [ 74.729272804296471, 13.630972602873602 ] ] } },
{ "type": "Feature", "properties": { "FID": 1100 }, "geometry": { "type": "LineString", "coordinates": [ [ 74.703857727317995, 13.632106454220031 ], [ 74.713103145143066, 13.632106454529843 ] ] } },
{ "type": "Feature", "properties": { "FID": 1120 }, "geometry": { "type": "LineString", "coordinates": [ [ 74.71984044264957, 13.628520532029045 ], [ 74.710595159053327, 13.628520531892187 ] ] } },
{ "type": "Feature", "properties": { "FID": 1140 }, "geometry": { "type": "LineString", "coordinates": [ [ 74.724218530262647, 13.617082722458115 ], [ 74.724218549705341, 13.626124898168445 ] ] } },
{ "type": "Feature", "properties": { "FID": 1160 }, "geometry": { "type": "LineString", "coordinates": [ [ 74.713020786149855, 13.619423503498032 ], [ 74.7222657180629, 13.619423503581542 ] ] } },
{ "type": "Feature", "properties": { "FID": 1180 }, "geometry": { "type": "LineString", "coordinates": [ [ 74.714989261087013, 13.614253173358946 ], [ 74.705744535556391, 13.614253173311923 ] ] } },
{ "type": "Feature", "properties": { "FID": 1200 }, "geometry": { "type": "LineString", "coordinates": [ [ 74.704209585894787, 13.62004206781047 ], [ 74.694964644035863, 13.620042067874108 ] ] } },
{ "type": "Feature", "properties": { "FID": 1220 }, "geometry": { "type": "LineString", "coordinates": [ [ 74.704100768502244, 13.628671000992831 ], [ 74.70410077105204, 13.637713153245617 ] ] } },
{ "type": "Feature", "properties": { "FID": 1240 }, "geometry": { "type": "LineString", "coordinates": [ [ 74.690652385944418, 13.63786577253491 ], [ 74.69989801724617, 13.637865772500154 ] ] } },
{ "type": "Feature", "properties": { "FID": 1260 }, "geometry": { "type": "LineString", "coordinates": [ [ 74.674213342527608, 13.63172911477394 ], [ 74.683458721370187, 13.631729114674533 ] ] } },
{ "type": "Feature", "properties": { "FID": 1280 }, "geometry": { "type": "LineString", "coordinates": [ [ 74.68696187726276, 13.617566832487427 ], [ 74.677717045824153, 13.617566832826547 ] ] } },
{ "type": "Feature", "properties": { "FID": 1300 }, "geometry": { "type": "LineString", "coordinates": [ [ 74.684046133324657, 13.610763696460076 ], [ 74.684046135035246, 13.601721540744279 ] ] } },
{ "type": "Feature", "properties": { "FID": 1320 }, "geometry": { "type": "LineString", "coordinates": [ [ 74.674213922567247, 13.601860372080912 ], [ 74.683458141331684, 13.601860372483609 ] ] } },
{ "type": "Feature", "properties": { "FID": 1340 }, "geometry": { "type": "LineString", "coordinates": [ [ 74.678741682867667, 13.612575428731434 ], [ 74.674091238422776, 13.604760691354072 ] ] } },
{ "type": "Feature", "properties": { "FID": 1360 }, "geometry": { "type": "LineString", "coordinates": [ [ 74.673554195430484, 13.6063029549417 ], [ 74.67355417906731, 13.615345098516586 ] ] } },
{ "type": "Feature", "properties": { "FID": 1380 }, "geometry": { "type": "LineString", "coordinates": [ [ 74.666128683249099, 13.622739756208555 ], [ 74.675373705620331, 13.622739756378785 ] ] } },
{ "type": "Feature", "properties": { "FID": 1400 }, "geometry": { "type": "LineString", "coordinates": [ [ 74.6698145040925, 13.632592744095454 ], [ 74.66981451409066, 13.62355061622932 ] ] } },
{ "type": "Feature", "properties": { "FID": 1420 }, "geometry": { "type": "LineString", "coordinates": [ [ 74.662625131735169, 13.62909237013913 ], [ 74.671870397914105, 13.629092370208166 ] ] } },
{ "type": "Feature", "properties": { "FID": 1440 }, "geometry": { "type": "LineString", "coordinates": [ [ 74.668824088967867, 13.598986357397031 ], [ 74.678068191581787, 13.598986357885812 ] ] } },
{ "type": "Feature", "properties": { "FID": 1460 }, "geometry": { "type": "LineString", "coordinates": [ [ 74.673945087366633, 13.567826545830732 ], [ 74.683187987452712, 13.567826545471451 ] ] } },
{ "type": "Feature", "properties": { "FID": 1480 }, "geometry": { "type": "LineString", "coordinates": [ [ 74.678527105444999, 13.536140014054718 ], [ 74.687768785186151, 13.536140014483411 ] ] } },
{ "type": "Feature", "properties": { "FID": 1500 }, "geometry": { "type": "LineString", "coordinates": [ [ 74.681492165374962, 13.503926535160591 ], [ 74.690732606214667, 13.503926534444858 ] ] } },
{ "type": "Feature", "properties": { "FID": 1520 }, "geometry": { "type": "LineString", "coordinates": [ [ 74.68499622278344, 13.471186095949379 ], [ 74.69423540815832, 13.471186097148932 ] ] } },
{ "type": "Feature", "properties": { "FID": 1540 }, "geometry": { "type": "LineString", "coordinates": [ [ 74.701241966957525, 13.455381656820828 ], [ 74.692003382076734, 13.455381656884981 ] ] } },
{ "type": "Feature", "properties": { "FID": 1560 }, "geometry": { "type": "LineString", "coordinates": [ [ 74.691424137729413, 13.461853797816962 ], [ 74.691424129733591, 13.470896060332969 ] ] } },
{ "type": "Feature", "properties": { "FID": 1580 }, "geometry": { "type": "LineString", "coordinates": [ [ 74.688230042911869, 13.477093408224492 ], [ 74.697469457764413, 13.47709340817395 ] ] } },
{ "type": "Feature", "properties": { "FID": 1600 }, "geometry": { "type": "LineString", "coordinates": [ [ 74.698278308274965, 13.496161399313685 ], [ 74.689038159926767, 13.496161399418193 ] ] } },
{ "type": "Feature", "properties": { "FID": 1620 }, "geometry": { "type": "LineString", "coordinates": [ [ 74.690924263890864, 13.514728980031032 ], [ 74.700165128471539, 13.514728979904756 ] ] } },
{ "type": "Feature", "properties": { "FID": 1640 }, "geometry": { "type": "LineString", "coordinates": [ [ 74.698019731156165, 13.494462651480324 ], [ 74.698019727949003, 13.503504895866673 ] ] } },
{ "type": "Feature", "properties": { "FID": 1660 }, "geometry": { "type": "LineString", "coordinates": [ [ 74.695294079143608, 13.491108148313344 ], [ 74.695294088570421, 13.482065897189024 ] ] } },
{ "type": "Feature", "properties": { "FID": 1680 }, "geometry": { "type": "LineString", "coordinates": [ [ 74.696584516839678, 13.469529536308228 ], [ 74.705823648087673, 13.469529535813571 ] ] } },
{ "type": "Feature", "properties": { "FID": 1700 }, "geometry": { "type": "LineString", "coordinates": [ [ 74.697123854315379, 13.451353581220257 ], [ 74.706362288931146, 13.45135358127648 ] ] } },
{ "type": "Feature", "properties": { "FID": 1720 }, "geometry": { "type": "LineString", "coordinates": [ [ 74.704259004018866, 13.437060281903909 ], [ 74.704259007410712, 13.446102572351343 ] ] } },
{ "type": "Feature", "properties": { "FID": 1740 }, "geometry": { "type": "LineString", "coordinates": [ [ 74.71224818076999, 13.444606130385015 ], [ 74.712248180576609, 13.453648421540741 ] ] } },
{ "type": "Feature", "properties": { "FID": 1760 }, "geometry": { "type": "LineString", "coordinates": [ [ 74.715300295538881, 13.459307806502059 ], [ 74.715300292444255, 13.450265517110401 ] ] } },
{ "type": "Feature", "properties": { "FID": 1780 }, "geometry": { "type": "LineString", "coordinates": [ [ 74.719651676880417, 13.459158839982562 ], [ 74.719651681458458, 13.468201126222469 ] ] } },
{ "type": "Feature", "properties": { "FID": 1800 }, "geometry": { "type": "LineString", "coordinates": [ [ 74.719238004407273, 13.472782532272348 ], [ 74.719238000181406, 13.463740249622365 ] ] } },
{ "type": "Feature", "properties": { "FID": 1820 }, "geometry": { "type": "LineString", "coordinates": [ [ 74.719475995905498, 13.469399638213833 ], [ 74.7194759837612, 13.478441916978738 ] ] } },
{ "type": "Feature", "properties": { "FID": 1840 }, "geometry": { "type": "LineString", "coordinates": [ [ 74.731538947768371, 13.465896202674104 ], [ 74.731538948396093, 13.474938492633246 ] ] } },
{ "type": "Feature", "properties": { "FID": 1860 }, "geometry": { "type": "LineString", "coordinates": [ [ 74.742475047574004, 13.475898618201413 ], [ 74.733235644287475, 13.475898618232122 ] ] } },
{ "type": "Feature", "properties": { "FID": 1880 }, "geometry": { "type": "LineString", "coordinates": [ [ 74.726548899664209, 13.479909927878049 ], [ 74.726548895061498, 13.488952204233831 ] ] } },
{ "type": "Feature", "properties": { "FID": 1900 }, "geometry": { "type": "LineString", "coordinates": [ [ 74.734289270599248, 13.483952345459979 ], [ 74.734289283449627, 13.492994624381927 ] ] } },
{ "type": "Feature", "properties": { "FID": 1920 }, "geometry": { "type": "LineString", "coordinates": [ [ 74.725548086057387, 13.502426931022836 ], [ 74.725548097906156, 13.493384665066658 ] ] } },
{ "type": "Feature", "properties": { "FID": 1940 }, "geometry": { "type": "LineString", "coordinates": [ [ 74.716162100801114, 13.498235570367221 ], [ 74.716162121139917, 13.507277825969252 ] ] } },
{ "type": "Feature", "properties": { "FID": 1960 }, "geometry": { "type": "LineString", "coordinates": [ [ 74.720084242050376, 13.511979797400675 ], [ 74.720084232476722, 13.521022046013698 ] ] } },
{ "type": "Feature", "properties": { "FID": 1980 }, "geometry": { "type": "LineString", "coordinates": [ [ 74.71814331541772, 13.509062930729396 ], [ 74.727383982993331, 13.509062930609087 ] ] } },
{ "type": "Feature", "properties": { "FID": 2000 }, "geometry": { "type": "LineString", "coordinates": [ [ 74.732059482732595, 13.495540617654211 ], [ 74.732059472521613, 13.504582886688826 ] ] } },
{ "type": "Feature", "properties": { "FID": 2020 }, "geometry": { "type": "LineString", "coordinates": [ [ 74.731887951890315, 13.487349299241451 ], [ 74.741127794126697, 13.487349299303897 ] ] } },
{ "type": "Feature", "properties": { "FID": 2040 }, "geometry": { "type": "LineString", "coordinates": [ [ 74.746787062992198, 13.48113519332197 ], [ 74.737547455581222, 13.481135193271557 ] ] } },
{ "type": "Feature", "properties": { "FID": 2060 }, "geometry": { "type": "LineString", "coordinates": [ [ 74.750671465987764, 13.48598777315426 ], [ 74.750671465419629, 13.476945478141214 ] ] } },
{ "type": "Feature", "properties": { "FID": 2080 }, "geometry": { "type": "LineString", "coordinates": [ [ 74.739434040220942, 13.474720370247686 ], [ 74.748673402567164, 13.474720370426169 ] ] } },
{ "type": "Feature", "properties": { "FID": 2100 }, "geometry": { "type": "LineString", "coordinates": [ [ 74.744795265360125, 13.462931756614843 ], [ 74.744795267907605, 13.471974057800283 ] ] } },
{ "type": "Feature", "properties": { "FID": 2120 }, "geometry": { "type": "LineString", "coordinates": [ [ 74.750020588488169, 13.459738052938302 ], [ 74.740781800120146, 13.459738052869611 ] ] } },
{ "type": "Feature", "properties": { "FID": 2140 }, "geometry": { "type": "LineString", "coordinates": [ [ 74.760185407227198, 13.45956046731156 ], [ 74.769424201514511, 13.459560467348123 ] ] } },
{ "type": "Feature", "properties": { "FID": 2160 }, "geometry": { "type": "LineString", "coordinates": [ [ 74.772388629983894, 13.45888813539476 ], [ 74.763149859622445, 13.458888135274611 ] ] } },
{ "type": "Feature", "properties": { "FID": 2180 }, "geometry": { "type": "LineString", "coordinates": [ [ 74.780155606442634, 13.457002862581744 ], [ 74.780155611111027, 13.466045190039997 ] ] } },
{ "type": "Feature", "properties": { "FID": 2200 }, "geometry": { "type": "LineString", "coordinates": [ [ 74.789708536173436, 13.467931654300823 ], [ 74.789708547212143, 13.458889322809327 ] ] } },
{ "type": "Feature", "properties": { "FID": 2220 }, "geometry": { "type": "LineString", "coordinates": [ [ 74.798855454641412, 13.458619825540513 ], [ 74.798855453124247, 13.467662162158687 ] ] } },
{ "type": "Feature", "properties": { "FID": 2240 }, "geometry": { "type": "LineString", "coordinates": [ [ 74.803875150016893, 13.466314690996882 ], [ 74.80387514013907, 13.457272350797853 ] ] } },
{ "type": "Feature", "properties": { "FID": 2260 }, "geometry": { "type": "LineString", "coordinates": [ [ 74.786651622346469, 13.458768840965718 ], [ 74.786651616624383, 13.44972650460039 ] ] } },
{ "type": "Feature", "properties": { "FID": 2280 }, "geometry": { "type": "LineString", "coordinates": [ [ 74.769715332539306, 13.459038331542843 ], [ 74.769715330301167, 13.449996005220749 ] ] } },
{ "type": "Feature", "properties": { "FID": 2300 }, "geometry": { "type": "LineString", "coordinates": [ [ 74.743207427725892, 13.450494068277671 ], [ 74.752445863380444, 13.450494068199989 ] ] } },
{ "type": "Feature", "properties": { "FID": 2320 }, "geometry": { "type": "LineString", "coordinates": [ [ 74.745498364608309, 13.459038322744989 ], [ 74.745498381183708, 13.449996011813827 ] ] } },
{ "type": "Feature", "properties": { "FID": 2340 }, "geometry": { "type": "LineString", "coordinates": [ [ 74.734583581307803, 13.451677761250956 ], [ 74.743822056397875, 13.451677761243808 ] ] } },
{ "type": "Feature", "properties": { "FID": 2360 }, "geometry": { "type": "LineString", "coordinates": [ [ 74.720300191429459, 13.461173926525708 ], [ 74.729539020333661, 13.461173926466019 ] ] } },
{ "type": "Feature", "properties": { "FID": 2380 }, "geometry": { "type": "LineString", "coordinates": [ [ 74.717066504208134, 13.448307970944215 ], [ 74.726304837524552, 13.448307971237817 ] ] } },
{ "type": "Feature", "properties": { "FID": 2400 }, "geometry": { "type": "LineString", "coordinates": [ [ 74.715180242840788, 13.437862597902502 ], [ 74.724418174722828, 13.4378625978419 ] ] } },
{ "type": "Feature", "properties": { "FID": 2420 }, "geometry": { "type": "LineString", "coordinates": [ [ 74.709985440791655, 13.435053300476724 ], [ 74.709985434893156, 13.426010997724154 ] ] } },
{ "type": "Feature", "properties": { "FID": 2440 }, "geometry": { "type": "LineString", "coordinates": [ [ 74.706262732667469, 13.429663409205608 ], [ 74.706262729934664, 13.420621105447649 ] ] } },
{ "type": "Feature", "properties": { "FID": 2460 }, "geometry": { "type": "LineString", "coordinates": [ [ 74.723609358965703, 13.420520254366307 ], [ 74.714372091094731, 13.420520254599593 ] ] } },
{ "type": "Feature", "properties": { "FID": 2480 }, "geometry": { "type": "LineString", "coordinates": [ [ 74.72076952088004, 13.424004030570568 ], [ 74.720769504742293, 13.414961711866583 ] ] } },
{ "type": "Feature", "properties": { "FID": 2500 }, "geometry": { "type": "LineString", "coordinates": [ [ 74.731898936189623, 13.419422628059383 ], [ 74.731898932179888, 13.410380298092242 ] ] } },
{ "type": "Feature", "properties": { "FID": 2520 }, "geometry": { "type": "LineString", "coordinates": [ [ 74.73997424179052, 13.411393057495982 ], [ 74.749211179289901, 13.41139305758495 ] ] } },
{ "type": "Feature", "properties": { "FID": 2540 }, "geometry": { "type": "LineString", "coordinates": [ [ 74.756954360999728, 13.404720901635715 ], [ 74.756954354649523, 13.413763252443085 ] ] } },
{ "type": "Feature", "properties": { "FID": 2560 }, "geometry": { "type": "LineString", "coordinates": [ [ 74.775492350325052, 13.411458262756438 ], [ 74.775492351913925, 13.420500620114817 ] ] } },
{ "type": "Feature", "properties": { "FID": 2580 }, "geometry": { "type": "LineString", "coordinates": [ [ 74.775547633623134, 13.405212340461045 ], [ 74.784784357740946, 13.405212339912733 ] ] } },
{ "type": "Feature", "properties": { "FID": 2600 }, "geometry": { "type": "LineString", "coordinates": [ [ 74.792599871220673, 13.414023925074256 ], [ 74.783362806047336, 13.41402392503664 ] ] } },
{ "type": "Feature", "properties": { "FID": 2620 }, "geometry": { "type": "LineString", "coordinates": [ [ 74.783275114259837, 13.420231127880978 ], [ 74.783275113889019, 13.411188765826521 ] ] } },
{ "type": "Feature", "properties": { "FID": 2640 }, "geometry": { "type": "LineString", "coordinates": [ [ 74.785606722470177, 13.41442270133264 ], [ 74.785606719330573, 13.423465062392614 ] ] } },
{ "type": "Feature", "properties": { "FID": 2660 }, "geometry": { "type": "LineString", "coordinates": [ [ 74.794524781435896, 13.417805680669392 ], [ 74.794524793727277, 13.40876331065197 ] ] } },
{ "type": "Feature", "properties": { "FID": 2680 }, "geometry": { "type": "LineString", "coordinates": [ [ 74.787627535001647, 13.410259833011363 ], [ 74.787627533115042, 13.401217461380011 ] ] } },
{ "type": "Feature", "properties": { "FID": 2700 }, "geometry": { "type": "LineString", "coordinates": [ [ 74.795014640070335, 13.399330996583597 ], [ 74.795014630987581, 13.408373373606432 ] ] } },
{ "type": "Feature", "properties": { "FID": 2720 }, "geometry": { "type": "LineString", "coordinates": [ [ 74.797153481753057, 13.399330996406091 ], [ 74.797153492172512, 13.408373374572967 ] ] } },
{ "type": "Feature", "properties": { "FID": 2740 }, "geometry": { "type": "LineString", "coordinates": [ [ 74.784784223309259, 13.398167731852226 ], [ 74.775547768066801, 13.398167732025703 ] ] } },
{ "type": "Feature", "properties": { "FID": 2760 }, "geometry": { "type": "LineString", "coordinates": [ [ 74.767928249414553, 13.404330948516737 ], [ 74.767928248508852, 13.395288584132857 ] ] } },
{ "type": "Feature", "properties": { "FID": 2780 }, "geometry": { "type": "LineString", "coordinates": [ [ 74.776969033442526, 13.40631198874874 ], [ 74.767732272025185, 13.406311988809605 ] ] } },
{ "type": "Feature", "properties": { "FID": 2800 }, "geometry": { "type": "LineString", "coordinates": [ [ 74.778732179937535, 13.397983527732073 ], [ 74.778732181745454, 13.407025896614881 ] ] } },
{ "type": "Feature", "properties": { "FID": 2820 }, "geometry": { "type": "LineString", "coordinates": [ [ 74.77177449514744, 13.416491740664931 ], [ 74.781011647852708, 13.416491740810315 ] ] } },
{ "type": "Feature", "properties": { "FID": 2840 }, "geometry": { "type": "LineString", "coordinates": [ [ 74.762163051966184, 13.416458199018756 ], [ 74.762163055014852, 13.407415846852468 ] ] } },
{ "type": "Feature", "properties": { "FID": 2860 }, "geometry": { "type": "LineString", "coordinates": [ [ 74.750558598905755, 13.408577489861667 ], [ 74.741321768022971, 13.408577489947032 ] ] } },
{ "type": "Feature", "properties": { "FID": 2880 }, "geometry": { "type": "LineString", "coordinates": [ [ 74.744934015287981, 13.396366570303336 ], [ 74.744934017972383, 13.405408919225932 ] ] } },
{ "type": "Feature", "properties": { "FID": 2900 }, "geometry": { "type": "LineString", "coordinates": [ [ 74.755409149502839, 13.390047129292784 ], [ 74.746173022471908, 13.390047129243488 ] ] } },
{ "type": "Feature", "properties": { "FID": 2920 }, "geometry": { "type": "LineString", "coordinates": [ [ 74.755528445128064, 13.391664703740343 ], [ 74.755528449366977, 13.382622338065412 ] ] } },
{ "type": "Feature", "properties": { "FID": 2940 }, "geometry": { "type": "LineString", "coordinates": [ [ 74.779394044176883, 13.383176552200011 ], [ 74.770158163810535, 13.383176552235916 ] ] } },
{ "type": "Feature", "properties": { "FID": 2960 }, "geometry": { "type": "LineString", "coordinates": [ [ 74.778781885605284, 13.388546866951497 ], [ 74.788017975783674, 13.388546866905809 ] ] } },
{ "type": "Feature", "properties": { "FID": 2980 }, "geometry": { "type": "LineString", "coordinates": [ [ 74.786058291202181, 13.385719527926435 ], [ 74.795294277748553, 13.385719528185826 ] ] } },
{ "type": "Feature", "properties": { "FID": 3000 }, "geometry": { "type": "LineString", "coordinates": [ [ 74.793604280035268, 13.378237774448046 ], [ 74.80283998563732, 13.378237774514536 ] ] } },
{ "type": "Feature", "properties": { "FID": 3020 }, "geometry": { "type": "LineString", "coordinates": [ [ 74.80796042795204, 13.380539408682278 ], [ 74.798724631928707, 13.380539408682658 ] ] } },
{ "type": "Feature", "properties": { "FID": 3040 }, "geometry": { "type": "LineString", "coordinates": [ [ 74.796861987637115, 13.376303529883806 ], [ 74.796861983084824, 13.367261128982832 ] ] } },
{ "type": "Feature", "properties": { "FID": 3060 }, "geometry": { "type": "LineString", "coordinates": [ [ 74.790982070516705, 13.370354376271957 ], [ 74.78174667173208, 13.370354376086576 ] ] } },
{ "type": "Feature", "properties": { "FID": 3080 }, "geometry": { "type": "LineString", "coordinates": [ [ 74.773122709200294, 13.377620560870751 ], [ 74.782358379653786, 13.377620560656071 ] ] } },
{ "type": "Feature", "properties": { "FID": 3100 }, "geometry": { "type": "LineString", "coordinates": [ [ 74.762415838889524, 13.381016597788516 ], [ 74.753180051464668, 13.381016597917135 ] ] } },
{ "type": "Feature", "properties": { "FID": 3120 }, "geometry": { "type": "LineString", "coordinates": [ [ 74.753522457290515, 13.378004725617808 ], [ 74.744286790491628, 13.378004725782969 ] ] } },
{ "type": "Feature", "properties": { "FID": 3140 }, "geometry": { "type": "LineString", "coordinates": [ [ 74.750827673199865, 13.386541845428104 ], [ 74.741591682898587, 13.386541845470504 ] ] } },
{ "type": "Feature", "properties": { "FID": 3160 }, "geometry": { "type": "LineString", "coordinates": [ [ 74.746515920728939, 13.395057149731441 ], [ 74.737279608664664, 13.395057149756575 ] ] } },
{ "type": "Feature", "properties": { "FID": 3180 }, "geometry": { "type": "LineString", "coordinates": [ [ 74.736005713463044, 13.399524791321374 ], [ 74.726769238357349, 13.399524791429261 ] ] } },
{ "type": "Feature", "properties": { "FID": 3200 }, "geometry": { "type": "LineString", "coordinates": [ [ 74.720962906136094, 13.398402054306686 ], [ 74.720962892872492, 13.389359717174703 ] ] } },
{ "type": "Feature", "properties": { "FID": 3220 }, "geometry": { "type": "LineString", "coordinates": [ [ 74.713564061178189, 13.396768239389722 ], [ 74.722800421364994, 13.396768239331434 ] ] } },
{ "type": "Feature", "properties": { "FID": 3240 }, "geometry": { "type": "LineString", "coordinates": [ [ 74.716915131721748, 13.406205032677923 ], [ 74.716232623780598, 13.397187423905388 ] ] } },
{ "type": "Feature", "properties": { "FID": 3260 }, "geometry": { "type": "LineString", "coordinates": [ [ 74.706287845144047, 13.389691295093023 ], [ 74.715523929840785, 13.389691295188111 ] ] } },
{ "type": "Feature", "properties": { "FID": 3280 }, "geometry": { "type": "LineString", "coordinates": [ [ 74.702619267545202, 13.380735894008291 ], [ 74.702619265044632, 13.389778223422807 ] ] } },
{ "type": "Feature", "properties": { "FID": 3300 }, "geometry": { "type": "LineString", "coordinates": [ [ 74.700496745712485, 13.395707101359145 ], [ 74.700496746967772, 13.386664777835048 ] ] } },
{ "type": "Feature", "properties": { "FID": 3320 }, "geometry": { "type": "LineString", "coordinates": [ [ 74.703693009226626, 13.394480122338084 ], [ 74.703693006562887, 13.403522442783247 ] ] } },
{ "type": "Feature", "properties": { "FID": 3340 }, "geometry": { "type": "LineString", "coordinates": [ [ 74.702551909166004, 13.413224244061334 ], [ 74.702551909152518, 13.404181931431911 ] ] } },
{ "type": "Feature", "properties": { "FID": 3360 }, "geometry": { "type": "LineString", "coordinates": [ [ 74.691196253758804, 13.384508305834995 ], [ 74.700432128871782, 13.38450830731132 ] ] } },
{ "type": "Feature", "properties": { "FID": 3380 }, "geometry": { "type": "LineString", "coordinates": [ [ 74.693083327584915, 13.352296951951642 ], [ 74.702317978132939, 13.352296952431299 ] ] } },
{ "type": "Feature", "properties": { "FID": 3400 }, "geometry": { "type": "LineString", "coordinates": [ [ 74.701437822679196, 13.343543519414752 ], [ 74.710672147268284, 13.343543519460953 ] ] } },
{ "type": "Feature", "properties": { "FID": 3420 }, "geometry": { "type": "LineString", "coordinates": [ [ 74.70939050005606, 13.348935519307792 ], [ 74.709390498821861, 13.357977876597699 ] ] } },
{ "type": "Feature", "properties": { "FID": 3440 }, "geometry": { "type": "LineString", "coordinates": [ [ 74.713636946644925, 13.362366431259575 ], [ 74.704401904159596, 13.362366431247018 ] ] } },
{ "type": "Feature", "properties": { "FID": 3460 }, "geometry": { "type": "LineString", "coordinates": [ [ 74.711501092783948, 13.363906755897808 ], [ 74.711501100726565, 13.35486440122388 ] ] } },
{ "type": "Feature", "properties": { "FID": 3480 }, "geometry": { "type": "LineString", "coordinates": [ [ 74.720643661267317, 13.354620794818576 ], [ 74.711408907975567, 13.354620794445347 ] ] } },
{ "type": "Feature", "properties": { "FID": 3500 }, "geometry": { "type": "LineString", "coordinates": [ [ 74.711459004879742, 13.340581183102804 ], [ 74.711458995379047, 13.349623547907544 ] ] } },
{ "type": "Feature", "properties": { "FID": 3520 }, "geometry": { "type": "LineString", "coordinates": [ [ 74.724955328106418, 13.341562282188653 ], [ 74.715721067792899, 13.341562282316817 ] ] } },
{ "type": "Feature", "properties": { "FID": 3540 }, "geometry": { "type": "LineString", "coordinates": [ [ 74.715341375341993, 13.33776579185357 ], [ 74.715341375757774, 13.328723415699123 ] ] } },
{ "type": "Feature", "properties": { "FID": 3560 }, "geometry": { "type": "LineString", "coordinates": [ [ 74.720598235897199, 13.32306402542766 ], [ 74.72059824555663, 13.332106409494324 ] ] } },
{ "type": "Feature", "properties": { "FID": 3580 }, "geometry": { "type": "LineString", "coordinates": [ [ 74.723440856962355, 13.30716383831734 ], [ 74.723440852090349, 13.31620623574684 ] ] } },
{ "type": "Feature", "properties": { "FID": 3600 }, "geometry": { "type": "LineString", "coordinates": [ [ 74.715769498455629, 13.32429106750857 ], [ 74.715769502985921, 13.315248681463814 ] ] } },
{ "type": "Feature", "properties": { "FID": 3620 }, "geometry": { "type": "LineString", "coordinates": [ [ 74.709594082500374, 13.339014511817052 ], [ 74.700359930772592, 13.33901451204968 ] ] } }
]
}
